[{"OBJECT_NAME":"TRACERS 1","OBJECT_ID":"2025-154B","EPOCH":"2026-03-09T22:30:44.529696","MEAN_MOTION":14.93154596,"ECCENTRICITY":0.00045304,"INCLINATION":97.6795,"RA_OF_ASC_NODE":134.9733,"ARG_OF_PERICENTER":213.6392,"MEAN_ANOMALY":146.4541,"EPHEMERIS_TYPE":0,"CLASSIFICATION_TYPE":"U","NORAD_CAT_ID":64870,"ELEMENT_SET_NO":999,"REV_AT_EPOCH":3418,"BSTAR":0.00024898886,"MEAN_MOTION_DOT":2.543e-5,"MEAN_MOTION_DDOT":0},{"OBJECT_NAME":"DELFI-N3XT","OBJECT_ID":"2013-066N","EPOCH":"2026-03-09T17:56:16.820160","MEAN_MOTION":14.93675177,"ECCENTRICITY":0.00763289,"INCLINATION":97.8341,"RA_OF_ASC_NODE":349.2574,"ARG_OF_PERICENTER":176.1438,"MEAN_ANOMALY":184.0386,"EPHEMERIS_TYPE":0,"CLASSIFICATION_TYPE":"U","NORAD_CAT_ID":39428,"ELEMENT_SET_NO":999,"REV_AT_EPOCH":65977,"BSTAR":0.00065912071,"MEAN_MOTION_DOT":7.321e-5,"MEAN_MOTION_DDOT":0}]
